STARLINK-30967          
1 58416U 23180Q   25302.99469542  .00001207  00000+0  10437-3 0  9995
2 58416  43.0038  46.3032 0001409 267.2501  92.8180 15.02544339107922
STARLINK-30955          
1 58417U 23180R   25302.76862631  .00000316  00000+0  38456-4 0  9999
2 58417  43.0035  47.1885 0001953 256.5849 103.4776 15.02537374107892
STARLINK-30895          
1 58418U 23180S   25302.98136587  .00000962  00000+0  86317-4 0  9994
2 58418  43.0127  46.2163 0005963 260.5610  99.4559 15.02535860107813
STARLINK-30917          
1 58419U 23180T   25303.02714529  .00001339  00000+0  58164-4 0  9997
2 58419  43.0016 321.6653 0001315 258.9102 101.1602 15.27583743108911
STARLINK-30899          
1 58420U 23180U   25302.97471931 -.00000040  00000+0  12145-4 0  9997
2 58420  43.0050  46.1666 0001644 262.1430  97.9226 15.02539952107818
STARLINK-30902          
1 58421U 23180V   25303.02123200 -.00001058  00000+0 -63238-4 0  9998
2 58421  43.0033  45.6541 0001095 275.2706  84.8012 15.02529310107823
STARLINK-30912          
1 58422U 23180W   25303.02084828  .00000041  00000+0  11007-4 0  9997
2 58422  43.0066 288.2500 0001555 260.6825  99.3851 15.27576053109312
STARLINK-30900          
1 58423U 23180X   25302.98471406 -.00001289  00000+0 -80414-4 0  9999
2 58423  43.0046  46.1913 0001495 271.0169  89.0502 15.02518498107814
STARLINK-30908          
1 58424U 23180Y   25302.76727015  .00002145  00000+0  17391-3 0  9999
2 58424  43.0038  46.2454 0001045 282.5201  77.5524 15.02520429107905
STARLINK-30869          
1 58437U 23183A   25302.59945810 -.00000018  00000+0  13746-4 0  9991
2 58437  43.0027  35.7383 0001417 271.6810  88.3870 15.02537546106999
STARLINK-30969          
1 58438U 23183B   25302.73576600 -.00004965  00000+0 -35298-3 0  9996
2 58438  43.0037  35.0395 0001101 284.1313  75.9407 15.02507245107019
STARLINK-30951          
1 58439U 23183C   25302.72907730  .00005032  00000+0  38714-3 0  9998
2 58439  43.0038  34.9875 0001436 264.3996  95.6682 15.02554088107011
STARLINK-30950          
1 58440U 23183D   25303.05084709 -.00000798  00000+0 -19460-4 0  9993
2 58440  43.0029 222.9074 0001432 274.7300  85.3389 15.27594351109053
STARLINK-30942          
1 58441U 23183E   25302.97834172  .00002702  00000+0  21497-3 0  9998
2 58441  42.9998  33.4218 0001382 273.7419  86.3265 15.02541458107051
STARLINK-30959          
1 58442U 23183F   25302.97168306  .00000655  00000+0  63524-4 0  9991
2 58442  43.0037  33.3716 0001397 276.9565  83.1118 15.02536084107054
STARLINK-30971          
1 58443U 23183G   25302.64925406  .00002277  00000+0  18344-3 0  9999
2 58443  43.0036  35.2441 0001573 270.3668  89.6994 15.02560787107003
