[{"OBJECT_NAME":"STARLINK-30967","OBJECT_ID":"2023-180Q","EPOCH":"2025-10-29T23:52:21.684288","MEAN_MOTION":15.02544339,"ECCENTRICITY":0.00014099,"INCLINATION":43.0038,"RA_OF_ASC_NODE":46.3032,"ARG_OF_PERICENTER":267.2501,"MEAN_ANOMALY":92.818,"EPHEMERIS_TYPE":0,"CLASSIFICATION_TYPE":"U","NORAD_CAT_ID":58416,"ELEMENT_SET_NO":999,"REV_AT_EPOCH":10792,"BSTAR":0.00010437236,"MEAN_MOTION_DOT":1.207e-5,"MEAN_MOTION_DDOT":0},{"OBJECT_NAME":"STARLINK-30955","OBJECT_ID":"2023-180R","EPOCH":"2025-10-29T18:26:49.313184","MEAN_MOTION":15.02537374,"ECCENTRICITY":0.00019534,"INCLINATION":43.0035,"RA_OF_ASC_NODE":47.1885,"ARG_OF_PERICENTER":256.5849,"MEAN_ANOMALY":103.4776,"EPHEMERIS_TYPE":0,"CLASSIFICATION_TYPE":"U","NORAD_CAT_ID":58417,"ELEMENT_SET_NO":999,"REV_AT_EPOCH":10789,"BSTAR":3.8455806e-5,"MEAN_MOTION_DOT":3.16e-6,"MEAN_MOTION_DDOT":0},{"OBJECT_NAME":"STARLINK-30895","OBJECT_ID":"2023-180S","EPOCH":"2025-10-29T23:33:10.011168","MEAN_MOTION":15.0253586,"ECCENTRICITY":0.00059636,"INCLINATION":43.0127,"RA_OF_ASC_NODE":46.2163,"ARG_OF_PERICENTER":260.561,"MEAN_ANOMALY":99.4559,"EPHEMERIS_TYPE":0,"CLASSIFICATION_TYPE":"U","NORAD_CAT_ID":58418,"ELEMENT_SET_NO":999,"REV_AT_EPOCH":10781,"BSTAR":8.6316952e-5,"MEAN_MOTION_DOT":9.62e-6,"MEAN_MOTION_DDOT":0},{"OBJECT_NAME":"STARLINK-30917","OBJECT_ID":"2023-180T","EPOCH":"2025-10-30T00:39:05.353056","MEAN_MOTION":15.27583743,"ECCENTRICITY":0.0001315,"INCLINATION":43.0016,"RA_OF_ASC_NODE":321.6653,"ARG_OF_PERICENTER":258.9102,"MEAN_ANOMALY":101.1602,"EPHEMERIS_TYPE":0,"CLASSIFICATION_TYPE":"U","NORAD_CAT_ID":58419,"ELEMENT_SET_NO":999,"REV_AT_EPOCH":10891,"BSTAR":5.8164043e-5,"MEAN_MOTION_DOT":1.339e-5,"MEAN_MOTION_DDOT":0},{"OBJECT_NAME":"STARLINK-30899","OBJECT_ID":"2023-180U","EPOCH":"2025-10-29T23:23:35.748384","MEAN_MOTION":15.02539952,"ECCENTRICITY":0.00016449,"INCLINATION":43.005,"RA_OF_ASC_NODE":46.1666,"ARG_OF_PERICENTER":262.143,"MEAN_ANOMALY":97.9226,"EPHEMERIS_TYPE":0,"CLASSIFICATION_TYPE":"U","NORAD_CAT_ID":58420,"ELEMENT_SET_NO":999,"REV_AT_EPOCH":10781,"BSTAR":1.2145382e-5,"MEAN_MOTION_DOT":-4.0e-7,"MEAN_MOTION_DDOT":0},{"OBJECT_NAME":"STARLINK-30902","OBJECT_ID":"2023-180V","EPOCH":"2025-10-30T00:30:34.444800","MEAN_MOTION":15.0252931,"ECCENTRICITY":0.00010957,"INCLINATION":43.0033,"RA_OF_ASC_NODE":45.6541,"ARG_OF_PERICENTER":275.2706,"MEAN_ANOMALY":84.8012,"EPHEMERIS_TYPE":0,"CLASSIFICATION_TYPE":"U","NORAD_CAT_ID":58421,"ELEMENT_SET_NO":999,"REV_AT_EPOCH":10782,"BSTAR":-6.3238104e-5,"MEAN_MOTION_DOT":-1.058e-5,"MEAN_MOTION_DDOT":0},{"OBJECT_NAME":"STARLINK-30912","OBJECT_ID":"2023-180W","EPOCH":"2025-10-30T00:30:01.291392","MEAN_MOTION":15.27576053,"ECCENTRICITY":0.00015557,"INCLINATION":43.0066,"RA_OF_ASC_NODE":288.25,"ARG_OF_PERICENTER":260.6825,"MEAN_ANOMALY":99.3851,"EPHEMERIS_TYPE":0,"CLASSIFICATION_TYPE":"U","NORAD_CAT_ID":58422,"ELEMENT_SET_NO":999,"REV_AT_EPOCH":10931,"BSTAR":1.1007323e-5,"MEAN_MOTION_DOT":4.1e-7,"MEAN_MOTION_DDOT":0},{"OBJECT_NAME":"STARLINK-30900","OBJECT_ID":"2023-180X","EPOCH":"2025-10-29T23:37:59.294784","MEAN_MOTION":15.02518498,"ECCENTRICITY":0.00014951,"INCLINATION":43.0046,"RA_OF_ASC_NODE":46.1913,"ARG_OF_PERICENTER":271.0169,"MEAN_ANOMALY":89.0502,"EPHEMERIS_TYPE":0,"CLASSIFICATION_TYPE":"U","NORAD_CAT_ID":58423,"ELEMENT_SET_NO":999,"REV_AT_EPOCH":10781,"BSTAR":-8.0414433e-5,"MEAN_MOTION_DOT":-1.289e-5,"MEAN_MOTION_DDOT":0},{"OBJECT_NAME":"STARLINK-30908","OBJECT_ID":"2023-180Y","EPOCH":"2025-10-29T18:24:52.140960","MEAN_MOTION":15.02520429,"ECCENTRICITY":0.00010459,"INCLINATION":43.0038,"RA_OF_ASC_NODE":46.2454,"ARG_OF_PERICENTER":282.5201,"MEAN_ANOMALY":77.5524,"EPHEMERIS_TYPE":0,"CLASSIFICATION_TYPE":"U","NORAD_CAT_ID":58424,"ELEMENT_SET_NO":999,"REV_AT_EPOCH":10790,"BSTAR":0.00017390994,"MEAN_MOTION_DOT":2.145e-5,"MEAN_MOTION_DDOT":0},{"OBJECT_NAME":"STARLINK-30869","OBJECT_ID":"2023-183A","EPOCH":"2025-10-29T14:23:13.179840","MEAN_MOTION":15.02537546,"ECCENTRICITY":0.00014173,"INCLINATION":43.0027,"RA_OF_ASC_NODE":35.7383,"ARG_OF_PERICENTER":271.681,"MEAN_ANOMALY":88.387,"EPHEMERIS_TYPE":0,"CLASSIFICATION_TYPE":"U","NORAD_CAT_ID":58437,"ELEMENT_SET_NO":999,"REV_AT_EPOCH":10699,"BSTAR":1.3745934e-5,"MEAN_MOTION_DOT":-1.8e-7,"MEAN_MOTION_DDOT":0},{"OBJECT_NAME":"STARLINK-30969","OBJECT_ID":"2023-183B","EPOCH":"2025-10-29T17:39:30.182400","MEAN_MOTION":15.02507245,"ECCENTRICITY":0.00011015,"INCLINATION":43.0037,"RA_OF_ASC_NODE":35.0395,"ARG_OF_PERICENTER":284.1313,"MEAN_ANOMALY":75.9407,"EPHEMERIS_TYPE":0,"CLASSIFICATION_TYPE":"U","NORAD_CAT_ID":58438,"ELEMENT_SET_NO":999,"REV_AT_EPOCH":10701,"BSTAR":-0.00035298336,"MEAN_MOTION_DOT":-4.965e-5,"MEAN_MOTION_DDOT":0},{"OBJECT_NAME":"STARLINK-30951","OBJECT_ID":"2023-183C","EPOCH":"2025-10-29T17:29:52.278720","MEAN_MOTION":15.02554088,"ECCENTRICITY":0.00014368,"INCLINATION":43.0038,"RA_OF_ASC_NODE":34.9875,"ARG_OF_PERICENTER":264.3996,"MEAN_ANOMALY":95.6682,"EPHEMERIS_TYPE":0,"CLASSIFICATION_TYPE":"U","NORAD_CAT_ID":58439,"ELEMENT_SET_NO":999,"REV_AT_EPOCH":10701,"BSTAR":0.00038714246,"MEAN_MOTION_DOT":5.032e-5,"MEAN_MOTION_DDOT":0},{"OBJECT_NAME":"STARLINK-30950","OBJECT_ID":"2023-183D","EPOCH":"2025-10-30T01:13:13.188576","MEAN_MOTION":15.27594351,"ECCENTRICITY":0.00014325,"INCLINATION":43.0029,"RA_OF_ASC_NODE":222.9074,"ARG_OF_PERICENTER":274.73,"MEAN_ANOMALY":85.3389,"EPHEMERIS_TYPE":0,"CLASSIFICATION_TYPE":"U","NORAD_CAT_ID":58440,"ELEMENT_SET_NO":999,"REV_AT_EPOCH":10905,"BSTAR":-1.9459669e-5,"MEAN_MOTION_DOT":-7.98e-6,"MEAN_MOTION_DDOT":0},{"OBJECT_NAME":"STARLINK-30942","OBJECT_ID":"2023-183E","EPOCH":"2025-10-29T23:28:48.724608","MEAN_MOTION":15.02541458,"ECCENTRICITY":0.0001382,"INCLINATION":42.9998,"RA_OF_ASC_NODE":33.4218,"ARG_OF_PERICENTER":273.7419,"MEAN_ANOMALY":86.3265,"EPHEMERIS_TYPE":0,"CLASSIFICATION_TYPE":"U","NORAD_CAT_ID":58441,"ELEMENT_SET_NO":999,"REV_AT_EPOCH":10705,"BSTAR":0.00021497146,"MEAN_MOTION_DOT":2.702e-5,"MEAN_MOTION_DDOT":0},{"OBJECT_NAME":"STARLINK-30959","OBJECT_ID":"2023-183F","EPOCH":"2025-10-29T23:19:13.416384","MEAN_MOTION":15.02536084,"ECCENTRICITY":0.00013976,"INCLINATION":43.0037,"RA_OF_ASC_NODE":33.3716,"ARG_OF_PERICENTER":276.9565,"MEAN_ANOMALY":83.1118,"EPHEMERIS_TYPE":0,"CLASSIFICATION_TYPE":"U","NORAD_CAT_ID":58442,"ELEMENT_SET_NO":999,"REV_AT_EPOCH":10705,"BSTAR":6.3524022e-5,"MEAN_MOTION_DOT":6.55e-6,"MEAN_MOTION_DDOT":0},{"OBJECT_NAME":"STARLINK-30971","OBJECT_ID":"2023-183G","EPOCH":"2025-10-29T15:34:55.550784","MEAN_MOTION":15.02560787,"ECCENTRICITY":0.00015735,"INCLINATION":43.0036,"RA_OF_ASC_NODE":35.2441,"ARG_OF_PERICENTER":270.3668,"MEAN_ANOMALY":89.6994,"EPHEMERIS_TYPE":0,"CLASSIFICATION_TYPE":"U","NORAD_CAT_ID":58443,"ELEMENT_SET_NO":999,"REV_AT_EPOCH":10700,"BSTAR":0.00018344123,"MEAN_MOTION_DOT":2.277e-5,"MEAN_MOTION_DDOT":0}]
